ONEWEB-0512             
1 54130U 22138T   24331.21309852  .00000034  00000+0  51923-4 0  9992
2 54130  87.9193  57.9250 0001961  87.6062 272.5296 13.19723098101891
ONEWEB-0513             
1 54131U 22138U   24330.80479123  .00000147  00000+0  33478-3 0  9995
2 54131  87.9189  57.9980 0002086  84.0529 276.0842 13.19726131101724
ONEWEB-0514             
1 54132U 22138V   24331.22888836  .00000007  00000+0 -16024-4 0  9993
2 54132  87.9187  57.9021 0001808 101.5474 258.5862 13.19723249101919
ONEWEB-0515             
1 54133U 22138W   24331.54897819  .00000230  00000+0  53463-3 0  9994
2 54133  87.9279  27.3413 0001289 127.5211 232.6040 13.20768873104376
ONEWEB-0516             
1 54134U 22138X   24331.20363226  .00000160  00000+0  36688-3 0  9990
2 54134  87.9195  57.9300 0001677 101.5031 258.6290 13.19724897101919
ONEWEB-0517             
1 54135U 22138Y   24330.27329524  .00000220  00000+0  51686-3 0  9992
2 54135  87.9186  58.0882 0002061  96.4875 263.6492 13.19725381101798
ONEWEB-0518             
1 54136U 22138Z   24331.20204197  .00000205  00000+0  47989-3 0  9999
2 54136  87.9193  57.9266 0001878 102.8755 257.2588 13.19724380101912
ONEWEB-0519             
1 54137U 22138AA  24331.22732508  .00000092  00000+0  19821-3 0  9992
2 54137  87.9186  57.8931 0002058 102.4594 257.6769 13.19724398101926
